{"type": "FeatureCollection", "features": [ {"type": "Feature", "properties": {"norad_id": 66475, "name": "STARLINK-35538", "group": "last-30-days", "lat": 33.401374819491764, "lon": -148.46145720501937, "alt_km": 410.83190030904825, "timestamp": "2025-12-11T18:59:44.809520+00:00", "meta": {"OBJECT_NAME": "STARLINK-35538", "OBJECT_ID": "2025-262V", "EPOCH": "2025-12-11T07:38:03.690528", "MEAN_MOTION": 15.50695378, "ECCENTRICITY": 0.00031261, "INCLINATION": 43.0003, "RA_OF_ASC_NODE": 79.3517, "ARG_OF_PERICENTER": 290.419, "MEAN_ANOMALY": 69.6334, "EPHEMERIS_TYPE": 0, "CLASSIFICATION_TYPE": "U", "NORAD_CAT_ID": 66475, "ELEMENT_SET_NO": 999, "REV_AT_EPOCH": 534, "BSTAR": 0.0036227816, "MEAN_MOTION_DOT": 0.00219166, "MEAN_MOTION_DDOT": 0}, "tle": {"line1": "1 66475U 25262V   25345.31809827  .00219166  00000+0  36228-2 0  9999", "line2": "2 66475  43.0003  79.3517 0003126 290.4190  69.6334 15.50695378  5341"}}, "geometry": {"type": "Point", "coordinates": [-148.46145720501937, 33.401374819491764]}}, {"type": "Feature", "properties": {"norad_id": 66476, "name": "STARLINK-35372", "group": "last-30-days", "lat": 32.45279240410811, "lon": -146.45628037583123, "alt_km": 409.59073864004495, "timestamp": "2025-12-11T18:59:44.809532+00:00", "meta": {"OBJECT_NAME": "STARLINK-35372", "OBJECT_ID": "2025-262W", "EPOCH": "2025-12-11T07:37:34.066560", "MEAN_MOTION": 15.50695203, "ECCENTRICITY": 0.00011469, "INCLINATION": 43.0003, "RA_OF_ASC_NODE": 79.3488, "ARG_OF_PERICENTER": 272.1293, "MEAN_ANOMALY": 87.9436, "EPHEMERIS_TYPE": 0, "CLASSIFICATION_TYPE": "U", "NORAD_CAT_ID": 66476, "ELEMENT_SET_NO": 999, "REV_AT_EPOCH": 523, "BSTAR": 0.0035312037, "MEAN_MOTION_DOT": 0.00213448, "MEAN_MOTION_DDOT": 0}, "tle": {"line1": "1 66476U 25262W   25345.31775540  .00213448  00000+0  35312-2 0  9994", "line2": "2 66476  43.0003  79.3488 0001146 272.1293  87.9436 15.50695203  5231"}}, "geometry": {"type": "Point", "coordinates": [-146.45628037583123, 32.45279240410811]}}, {"type": "Feature", "properties": {"norad_id": 66477, "name": "STARLINK-35354", "group": "last-30-days", "lat": 30.527773122755754, "lon": -142.6920555320415, "alt_km": 410.28458942798807, "timestamp": "2025-12-11T18:59:44.809543+00:00", "meta": {"OBJECT_NAME": "STARLINK-35354", "OBJECT_ID": "2025-262X", "EPOCH": "2025-12-11T07:36:34.693344", "MEAN_MOTION": 15.50668561, "ECCENTRICITY": 0.00016097, "INCLINATION": 43.0001, "RA_OF_ASC_NODE": 79.3431, "ARG_OF_PERICENTER": 267.1783, "MEAN_ANOMALY": 92.8893, "EPHEMERIS_TYPE": 0, "CLASSIFICATION_TYPE": "U", "NORAD_CAT_ID": 66477, "ELEMENT_SET_NO": 999, "REV_AT_EPOCH": 534, "BSTAR": 0.0026959533, "MEAN_MOTION_DOT": 0.0016164, "MEAN_MOTION_DDOT": 0}, "tle": {"line1": "1 66477U 25262X   25345.31706821  .00161640  00000+0  26960-2 0  9996", "line2": "2 66477  43.0001  79.3431 0001609 267.1783  92.8893 15.50668561  5341"}}, "geometry": {"type": "Point", "coordinates": [-142.6920555320415, 30.527773122755754]}}, {"type": "Feature", "properties": {"norad_id": 66478, "name": "STARLINK-35283", "group": "last-30-days", "lat": 29.45846378741049, "lon": -140.74857102479507, "alt_km": 410.23892994923335, "timestamp": "2025-12-11T18:59:44.809553+00:00", "meta": {"OBJECT_NAME": "STARLINK-35283", "OBJECT_ID": "2025-262Y", "EPOCH": "2025-12-11T07:36:04.808448", "MEAN_MOTION": 15.50692325, "ECCENTRICITY": 0.00017473, "INCLINATION": 43, "RA_OF_ASC_NODE": 79.3398, "ARG_OF_PERICENTER": 260.3131, "MEAN_ANOMALY": 99.7532, "EPHEMERIS_TYPE": 0, "CLASSIFICATION_TYPE": "U", "NORAD_CAT_ID": 66478, "ELEMENT_SET_NO": 999, "REV_AT_EPOCH": 534, "BSTAR": 0.0032392192, "MEAN_MOTION_DOT": 0.00195292, "MEAN_MOTION_DDOT": 0}, "tle": {"line1": "1 66478U 25262Y   25345.31672232  .00195292  00000+0  32392-2 0  9991", "line2": "2 66478  43.0000  79.3398 0001747 260.3131  99.7532 15.50692325  5349"}}, "geometry": {"type": "Point", "coordinates": [-140.74857102479507, 29.45846378741049]}}, {"type": "Feature", "properties": {"norad_id": 66479, "name": "STARLINK-35581", "group": "last-30-days", "lat": 31.47630654125651, "lon": -144.50186671975564, "alt_km": 410.14098710478993, "timestamp": "2025-12-11T18:59:44.809563+00:00", "meta": {"OBJECT_NAME": "STARLINK-35581", "OBJECT_ID": "2025-262Z", "EPOCH": "2025-12-11T07:37:04.453824", "MEAN_MOTION": 15.5070006, "ECCENTRICITY": 0.00020639, "INCLINATION": 43.0001, "RA_OF_ASC_NODE": 79.3447, "ARG_OF_PERICENTER": 270.6416, "MEAN_ANOMALY": 89.4208, "EPHEMERIS_TYPE": 0, "CLASSIFICATION_TYPE": "U", "NORAD_CAT_ID": 66479, "ELEMENT_SET_NO": 999, "REV_AT_EPOCH": 534, "BSTAR": 0.0039383575, "MEAN_MOTION_DOT": 0.00238924, "MEAN_MOTION_DDOT": 0}, "tle": {"line1": "1 66479U 25262Z   25345.31741266  .00238924  00000+0  39384-2 0  9994", "line2": "2 66479  43.0001  79.3447 0002063 270.6416  89.4208 15.50700060  5340"}}, "geometry": {"type": "Point", "coordinates": [-144.50186671975564, 31.47630654125651]}}, {"type": "Feature", "properties": {"norad_id": 66480, "name": "STARLINK-35670", "group": "last-30-days", "lat": 28.43852003933274, "lon": -138.97629173496557, "alt_km": 410.61459729026046, "timestamp": "2025-12-11T18:59:44.809573+00:00", "meta": {"OBJECT_NAME": "STARLINK-35670", "OBJECT_ID": "2025-262AA", "EPOCH": "2025-12-11T07:35:35.457504", "MEAN_MOTION": 15.50674753, "ECCENTRICITY": 0.00016635, "INCLINATION": 43.0004, "RA_OF_ASC_NODE": 79.3368, "ARG_OF_PERICENTER": 272.8981, "MEAN_ANOMALY": 87.1689, "EPHEMERIS_TYPE": 0, "CLASSIFICATION_TYPE": "U", "NORAD_CAT_ID": 66480, "ELEMENT_SET_NO": 999, "REV_AT_EPOCH": 534, "BSTAR": 0.002931801, "MEAN_MOTION_DOT": 0.0017618, "MEAN_MOTION_DDOT": 0}, "tle": {"line1": "1 66480U 25262AA  25345.31638261  .00176180  00000+0  29318-2 0  9997", "line2": "2 66480  43.0004  79.3368 0001663 272.8981  87.1689 15.50674753  5340"}}, "geometry": {"type": "Point", "coordinates": [-138.97629173496557, 28.43852003933274]}}, {"type": "Feature", "properties": {"norad_id": 66481, "name": "STARLINK-35698", "group": "last-30-days", "lat": 27.35294341363799, "lon": -137.16890602748649, "alt_km": 411.1585555975389, "timestamp": "2025-12-11T18:59:44.809583+00:00", "meta": {"OBJECT_NAME": "STARLINK-35698", "OBJECT_ID": "2025-262AB", "EPOCH": "2025-12-11T07:35:05.792928", "MEAN_MOTION": 15.50681189, "ECCENTRICITY": 0.00023047, "INCLINATION": 43.0002, "RA_OF_ASC_NODE": 79.3339, "ARG_OF_PERICENTER": 280.8097, "MEAN_ANOMALY": 79.2504, "EPHEMERIS_TYPE": 0, "CLASSIFICATION_TYPE": "U", "NORAD_CAT_ID": 66481, "ELEMENT_SET_NO": 999, "REV_AT_EPOCH": 534, "BSTAR": 0.003181564, "MEAN_MOTION_DOT": 0.00191646, "MEAN_MOTION_DDOT": 0}, "tle": {"line1": "1 66481U 25262AB  25345.31603927  .00191646  00000+0  31816-2 0  9999", "line2": "2 66481  43.0002  79.3339 0002304 280.8097  79.2504 15.50681189  5346"}}, "geometry": {"type": "Point", "coordinates": [-137.16890602748649, 27.35294341363799]}}, {"type": "Feature", "properties": {"norad_id": 66482, "name": "STARLINK-35648", "group": "last-30-days", "lat": 26.30424203597712, "lon": -135.49023157896713, "alt_km": 411.0139241612851, "timestamp": "2025-12-11T18:59:44.809593+00:00", "meta": {"OBJECT_NAME": "STARLINK-35648", "OBJECT_ID": "2025-262AC", "EPOCH": "2025-12-11T07:34:36.215616", "MEAN_MOTION": 15.50653247, "ECCENTRICITY": 0.00017258, "INCLINATION": 43.0002, "RA_OF_ASC_NODE": 79.3314, "ARG_OF_PERICENTER": 266.5381, "MEAN_ANOMALY": 93.5281, "EPHEMERIS_TYPE": 0, "CLASSIFICATION_TYPE": "U", "NORAD_CAT_ID": 66482, "ELEMENT_SET_NO": 999, "REV_AT_EPOCH": 518, "BSTAR": 0.0023251527, "MEAN_MOTION_DOT": 0.00138878, "MEAN_MOTION_DDOT": 0}, "tle": {"line1": "1 66482U 25262AC  25345.31569694  .00138878  00000+0  23252-2 0  9995", "line2": "2 66482  43.0002  79.3314 0001725 266.5381  93.5281 15.50653247  5180"}}, "geometry": {"type": "Point", "coordinates": [-135.49023157896713, 26.30424203597712]}}, {"type": "Feature", "properties": {"norad_id": 66483, "name": "STARLINK-35654", "group": "last-30-days", "lat": 25.123026981736057, "lon": -133.67282830829015, "alt_km": 411.2538705859479, "timestamp": "2025-12-11T18:59:44.809603+00:00", "meta": {"OBJECT_NAME": "STARLINK-35654", "OBJECT_ID": "2025-262AD", "EPOCH": "2025-12-11T07:34:06.625344", "MEAN_MOTION": 15.50687871, "ECCENTRICITY": 0.00021518, "INCLINATION": 43.0004, "RA_OF_ASC_NODE": 79.3265, "ARG_OF_PERICENTER": 277.1436, "MEAN_ANOMALY": 82.918, "EPHEMERIS_TYPE": 0, "CLASSIFICATION_TYPE": "U", "NORAD_CAT_ID": 66483, "ELEMENT_SET_NO": 999, "REV_AT_EPOCH": 534, "BSTAR": 0.0034441975, "MEAN_MOTION_DOT": 0.0020798, "MEAN_MOTION_DDOT": 0}, "tle": {"line1": "1 66483U 25262AD  25345.31535446  .00207980  00000+0  34442-2 0  9998", "line2": "2 66483  43.0004  79.3265 0002151 277.1436  82.9180 15.50687871  5349"}}, "geometry": {"type": "Point", "coordinates": [-133.67282830829015, 25.123026981736057]}}, {"type": "Feature", "properties": {"norad_id": 66484, "name": "STARLINK-35371", "group": "last-30-days", "lat": 23.962455937738675, "lon": -131.94952674913748, "alt_km": 411.1660974631677, "timestamp": "2025-12-11T18:59:44.809616+00:00", "meta": {"OBJECT_NAME": "STARLINK-35371", "OBJECT_ID": "2025-262AE", "EPOCH": "2025-12-11T07:33:36.950400", "MEAN_MOTION": 15.50698591, "ECCENTRICITY": 0.00019509, "INCLINATION": 43.0002, "RA_OF_ASC_NODE": 79.3252, "ARG_OF_PERICENTER": 272.5859, "MEAN_ANOMALY": 87.4777, "EPHEMERIS_TYPE": 0, "CLASSIFICATION_TYPE": "U", "NORAD_CAT_ID": 66484, "ELEMENT_SET_NO": 999, "REV_AT_EPOCH": 534, "BSTAR": 0.0036687521, "MEAN_MOTION_DOT": 0.00222049, "MEAN_MOTION_DDOT": 0}, "tle": {"line1": "1 66484U 25262AE  25345.31501100  .00222049  00000+0  36688-2 0  9996", "line2": "2 66484  43.0002  79.3252 0001950 272.5859  87.4777 15.50698591  5341"}}, "geometry": {"type": "Point", "coordinates": [-131.94952674913748, 23.962455937738675]}}]}